CCSDS_OMM_VERS = 2.0
CREATION_DATE  = 
ORIGINATOR     = 

OBJECT_NAME    = CZ-2C R/B
OBJECT_ID      = 2022-132E
CENTER_NAME    = EARTH
REF_FRAME      = TEME
TIME_SYSTEM    = UTC
MEAN_ELEMENT_THEORY = SGP/SGP4

EPOCH          = 2026-01-21T11:22:12.538272
MEAN_MOTION    = 15.57712206
ECCENTRICITY   = .0016632
INCLINATION    = 97.2956
RA_OF_ASC_NODE = 23.5156
ARG_OF_PERICENTER = 265.5002
MEAN_ANOMALY   = 94.4354

EPHEMERIS_TYPE = 0
CLASSIFICATION_TYPE = U
NORAD_CAT_ID   = 54039
ELEMENT_SET_NO = 999
REV_AT_EPOCH   = 18301
BSTAR          = .5828E-3
MEAN_MOTION_DOT = .43515E-3
MEAN_MOTION_DDOT = 0

CCSDS_OMM_VERS = 2.0
CREATION_DATE  = 
ORIGINATOR     = 

OBJECT_NAME    = GSLV R/B
OBJECT_ID      = 2022-138AN
CENTER_NAME    = EARTH
REF_FRAME      = TEME
TIME_SYSTEM    = UTC
MEAN_ELEMENT_THEORY = SGP/SGP4

EPOCH          = 2026-01-21T12:21:25.917120
MEAN_MOTION    = 14.96384592
ECCENTRICITY   = .002042
INCLINATION    = 87.3841
RA_OF_ASC_NODE = 182.1510
ARG_OF_PERICENTER = 328.6577
MEAN_ANOMALY   = 31.3436

EPHEMERIS_TYPE = 0
CLASSIFICATION_TYPE = U
NORAD_CAT_ID   = 54149
ELEMENT_SET_NO = 999
REV_AT_EPOCH   = 17687
BSTAR          = .58556E-3
MEAN_MOTION_DOT = .6685E-4
MEAN_MOTION_DDOT = 0

CCSDS_OMM_VERS = 2.0
CREATION_DATE  = 
ORIGINATOR     = 

OBJECT_NAME    = XRISM
OBJECT_ID      = 2023-137A
CENTER_NAME    = EARTH
REF_FRAME      = TEME
TIME_SYSTEM    = UTC
MEAN_ELEMENT_THEORY = SGP/SGP4

EPOCH          = 2026-01-21T06:46:28.203168
MEAN_MOTION    = 15.10849356
ECCENTRICITY   = .000804
INCLINATION    = 31.0008
RA_OF_ASC_NODE = 230.1487
ARG_OF_PERICENTER = 284.7843
MEAN_ANOMALY   = 75.1904

EPHEMERIS_TYPE = 0
CLASSIFICATION_TYPE = U
NORAD_CAT_ID   = 57800
ELEMENT_SET_NO = 999
REV_AT_EPOCH   = 13061
BSTAR          = .66939E-3
MEAN_MOTION_DOT = .11523E-3
MEAN_MOTION_DDOT = 0

CCSDS_OMM_VERS = 2.0
CREATION_DATE  = 
ORIGINATOR     = 

OBJECT_NAME    = ACS3
OBJECT_ID      = 2024-077B
CENTER_NAME    = EARTH
REF_FRAME      = TEME
TIME_SYSTEM    = UTC
MEAN_ELEMENT_THEORY = SGP/SGP4

EPOCH          = 2026-01-19T20:35:34.278432
MEAN_MOTION    = 13.87295570
ECCENTRICITY   = .00539164
INCLINATION    = 97.2370
RA_OF_ASC_NODE = 331.9399
ARG_OF_PERICENTER = 237.7526
MEAN_ANOMALY   = 121.8405

EPHEMERIS_TYPE = 0
CLASSIFICATION_TYPE = U
NORAD_CAT_ID   = 59588
ELEMENT_SET_NO = 999
REV_AT_EPOCH   = 8742
BSTAR          = -.25632936E-3
MEAN_MOTION_DOT = -.334E-5
MEAN_MOTION_DDOT = 0

CCSDS_OMM_VERS = 2.0
CREATION_DATE  = 
ORIGINATOR     = 

OBJECT_NAME    = SZ-21 MODULE
OBJECT_ID      = 2025-246C
CENTER_NAME    = EARTH
REF_FRAME      = TEME
TIME_SYSTEM    = UTC
MEAN_ELEMENT_THEORY = SGP/SGP4

EPOCH          = 2026-01-21T09:26:38.566752
MEAN_MOTION    = 15.64963547
ECCENTRICITY   = .0002938
INCLINATION    = 41.4762
RA_OF_ASC_NODE = 133.7187
ARG_OF_PERICENTER = 215.6118
MEAN_ANOMALY   = 144.4526

EPHEMERIS_TYPE = 0
CLASSIFICATION_TYPE = U
NORAD_CAT_ID   = 66515
ELEMENT_SET_NO = 999
REV_AT_EPOCH   = 1065
BSTAR          = .45441E-3
MEAN_MOTION_DOT = .458E-3
MEAN_MOTION_DDOT = 0

